[{"OBJECT_NAME":"TEIKYOSAT-4 (OORURI)","OBJECT_ID":"2021-102B","EPOCH":"2026-03-09T16:12:29.535840","MEAN_MOTION":15.09119208,"ECCENTRICITY":0.00103447,"INCLINATION":97.3797,"RA_OF_ASC_NODE":101.9931,"ARG_OF_PERICENTER":276.5421,"MEAN_ANOMALY":83.463,"EPHEMERIS_TYPE":0,"CLASSIFICATION_TYPE":"U","NORAD_CAT_ID":49396,"ELEMENT_SET_NO":999,"REV_AT_EPOCH":23771,"BSTAR":0.00015739844,"MEAN_MOTION_DOT":2.438e-5,"MEAN_MOTION_DDOT":0},{"OBJECT_NAME":"STARLINK-4751","OBJECT_ID":"2022-114H","EPOCH":"2026-03-09T21:59:58.479648","MEAN_MOTION":15.08834432,"ECCENTRICITY":0.00012477,"INCLINATION":53.2165,"RA_OF_ASC_NODE":303.2516,"ARG_OF_PERICENTER":103.5502,"MEAN_ANOMALY":256.563,"EPHEMERIS_TYPE":0,"CLASSIFICATION_TYPE":"U","NORAD_CAT_ID":53825,"ELEMENT_SET_NO":999,"REV_AT_EPOCH":19286,"BSTAR":-0.00015999485,"MEAN_MOTION_DOT":-2.833e-5,"MEAN_MOTION_DDOT":0}]
